ANIK F1                 
1 26624U 00076A   17301.19607376 -.00000077  00000-0  00000+0 0  9998
2 26624   0.0125 209.6408 0002763 309.7091 200.6961  1.00272104 62106
ASTRA 2D                
1 26638U 00081A   17300.92565996  .00000047  00000-0  00000-0 0  9997
2 26638   3.9038  69.4033 0001915 145.4117 214.6060  1.00270025 21283
AMC-8 (GE-8)            
1 26639U 00081B   17301.71855146  .00000102  00000-0  00000+0 0  9996
2 26639   0.0187  77.8064 0002420 142.9008 296.2385  1.00273506 61655
SKYNET 4F               
1 26695U 01005B   17302.12817354 -.00000245  00000-0  00000+0 0  9999
2 26695   9.0466  35.6815 0003089 171.4124 202.7159  1.00270979 61269
EUTELSAT 33C            
1 26719U 01011A   17302.54004229  .00000154  00000-0  00000+0 0  9996
2 26719   0.0722  29.2892 0003886 208.9015  27.4068  1.00274993 60963
INTELSAT 10 (IS-10)     
1 26766U 01019A   17302.16462439  .00000125  00000-0  00000+0 0  9993
2 26766   1.7934  84.4927 0002710 147.4599 272.5340  1.00270368 60316
INTELSAT 901 (IS-901)   
1 26824U 01024A   17301.83660399 -.00000143  00000-0  00000-0 0  9994
2 26824   0.0138 271.8890 0002729 302.8538 105.8203  1.00271893 60073
ASTRA 2C                
1 26853U 01025A   17302.07063289  .00000045  00000-0  00000+0 0  9998
2 26853   0.6785  91.1513 0003625 120.4478 271.7578  1.00270812 59961
ARTEMIS                 
1 26863U 01029A   17301.62063133 -.00000364  00000-0  00000-0 0  9997
2 26863  12.8643  31.6970 0002682 229.3820 122.4668  1.00267047 12527
INTELSAT 902 (IS-902)   
1 26900U 01039A   17301.91628257  .00000030  00000-0  00000-0 0  9995
2 26900   0.0144 269.2956 0002888 309.3553 210.6618  1.00271932 59093
EUTELSAT 12 WEST B      
1 26927U 01042A   17301.83660399 -.00000102  00000-0  00000+0 0  9992
2 26927   0.0707  45.0128 0005285 187.7515  93.3351  1.00271489 58904
DIRECTV 4S              
1 26985U 01052A   17302.22182341 -.00000116  00000-0  00000+0 0  9992
2 26985   0.0393  69.2598 0002817 143.8875 163.2942  1.00272013 58387
ECHOSTAR 7              
1 27378U 02006A   17302.50396696 -.00000003  00000-0  00000+0 0  9995
2 27378   0.0256  98.8294 0001918  75.1963 286.6695  1.00270578 57455
INTELSAT 904 (IS-904)   
1 27380U 02007A   17302.16532351  .00000134  00000-0  00000+0 0  9995
2 27380   0.0326 115.6271 0002726  92.7156 293.9967  1.00271591 57477
TDRS 9                  
1 27389U 02011A   17301.68868757 -.00000097  00000-0  00000-0 0  9997
2 27389   5.5193  77.4295 0019356 233.2535 322.5346  1.00271782 58821
JCSAT 2A                
1 27399U 02015A   17302.05118809 -.00000263  00000-0  00000+0 0  9994
2 27399   0.7584  91.7243 0003831 156.8388 265.2358  1.00112141 57000
ASTRA 3A                
1 27400U 02015B   17301.21767359 -.00000280  00000-0  00000+0 0  9993
2 27400   4.0638  68.1167 0002444 146.5133 213.5030  1.00275773 57099
INTELSAT 903 (IS-903)   
1 27403U 02016A   17301.84143395 -.00000226  00000-0  00000-0 0  9995
2 27403   0.1221  93.9940 0001761  70.9167 143.9093  1.00271539 14050
NSS-7                   
1 27414U 02019A   17302.17981652 -.00000156  00000-0  00000+0 0  9994
2 27414   2.1694  82.2960 0002368 142.8169 217.3535  1.00271586 56949
DIRECTV 5 (TEMPO 1)     
1 27426U 02023A   17302.20104269 -.00000058  00000-0  00000+0 0  9998
2 27426   0.0194 244.9083 0003328 329.6398 145.4303  1.00268938 56696
INTELSAT 905 (IS-905)   
1 27438U 02027A   17301.84143395 -.00000187  00000-0  00000+0 0  9990
2 27438   0.0094 227.2253 0002521 335.1952 113.3999  1.00271117 56343
EXPRESS-A4              
1 27441U 02029A   17301.83180522 -.00000242  00000-0  00000+0 0  9990
2 27441   6.2824  55.6494 0005832 105.6011 321.1179  1.00274200 56356
GALAXY 3C (G-3C)        
1 27445U 02030A   17301.16209925 -.00000154  00000-0  00000-0 0  9994
2 27445   0.0218 286.8277 0001282  45.3685  27.8320  1.00272101 14965
EUTELSAT 5 WEST A       
1 27460U 02035A   17301.90982083 -.00000045  00000-0  00000+0 0  9999
2 27460   0.0481  13.3730 0005361 207.6909 138.9314  1.00271271 56134
N-STAR C                
1 27461U 02035B   17301.74424407 -.00000308  00000-0  00000+0 0  9995
2 27461   4.8762  64.0387 0002330  85.2477 291.9495  1.00272893 56044
EUTELSAT 36 WEST A      
1 27508U 02040A   17300.99911855 -.00000248  00000-0  00000-0 0  9991
2 27508   0.0711  14.4779 0002974 280.3293  65.1967  1.00272027 55571
METEOSAT-8 (MSG-1)      
1 27509U 02040B   17302.04318281  .00000143  00000-0  00000+0 0  9996
2 27509   5.0704  57.7896 0000420 303.0310  93.6024  1.00270860 55636
INTELSAT 906 (IS-906)   
1 27513U 02041A   17302.37965963  .00000012  00000-0  00000+0 0  9998
2 27513   0.0140 244.2623 0002765 332.4550  22.0355  1.00272177 55352
KALPANA-1 (METSAT 1)    
1 27525U 02043A   17300.84618070 -.00000076  00000-0  00000-0 0  9999
2 27525   6.5665  54.3659 0014990 226.7694 133.0691  1.00271104 55438
HISPASAT 1D             
1 27528U 02044A   17302.30509356 -.00000218  00000-0  00000+0 0  9999
2 27528   0.0347   9.6243 0003763 228.4212 239.6381  1.00270371 55333
TDRS 10                 
1 27566U 02055A   17301.54182227  .00000080  00000-0  00000-0 0  9999
2 27566   5.2618  57.7975 0010006 212.1677 147.7398  1.00271677 54619
NSS-6                   
1 27603U 02057A   17302.54072170 -.00000271  00000-0  00000+0 0  9991
2 27603   0.0193 122.0502 0003244 114.6039  91.0483  1.00267447 54478
NIMIQ 2                 
1 27632U 02062A   17301.87191664 -.00000231  00000-0  00000+0 0  9990
2 27632   2.2607  81.2426 0000596  77.4812 282.6591  1.00270317 54262
INTELSAT 907 (IS-907)   
1 27683U 03007A   17300.97494375 -.00000205  00000-0  00000+0 0  9992
2 27683   0.0113 238.9801 0002868 327.5610 153.4789  1.00272836 53769
GALAXY 12 (G-12)        
1 27715U 03013B   17302.47532962  .00000057  00000-0  00000+0 0  9991
2 27715   0.0142 235.5406 0002716 341.6418 222.9473  1.00272814 53393
ASIASAT 4               
1 27718U 03014A   17301.89434510 -.00000362  00000-0  00000+0 0  9990
2 27718   0.0247 152.5684 0000402 302.5477  26.3918  1.00269788 53306
HELLAS-SAT 2            
1 27811U 03020A   17301.90257816  .00000150  00000-0  00000-0 0  9990
2 27811   0.0469 174.9698 0006536  43.0985 183.3127  1.00273344 11239
AMC-9 (GE-12)           
1 27820U 03024A   17302.24006288  .00000110  00000-0  00000+0 0  9992
2 27820   0.2615  89.6249 0012224 258.4110 347.4126  0.99692441 52711
THURAYA-2               
1 27825U 03026A   17302.66646939  .00000132  00000-0  00000+0 0  9992
2 27825   5.0386  29.6251 0004977 176.6465 115.8661  1.00274136 52734
OPTUS C1                
1 27831U 03028B   17301.74285631 -.00000149  00000-0  00000+0 0  9996
2 27831   0.0488 136.0132 0004261  70.8916 253.8296  1.00271423 52702
ECHOSTAR 12 (RAINBOW 1) 
1 27852U 03033A   17302.38035378 -.00000201  00000-0  00000+0 0  9996
2 27852   0.0165 109.5972 0001778 132.2516 206.5775  1.00271018 52362
GALAXY 23 (G-23)        
1 27854U 03034A   17302.20270220  .00000011  00000-0  00000+0 0  9995
2 27854   0.0242 269.6793 0002904 306.2889 133.7600  1.00272398 56923
EUTELSAT 33A            
1 27948U 03043A   17301.77541012  .00000152  00000-0  00000-0 0  9997
2 27948   2.6351  77.7719 0002673 237.6025  31.9642  1.00273588 13856
GALAXY 13 (HORIZONS-1)  
1 27954U 03044A   17301.85049551  .00000045  00000-0  00000+0 0  9995
2 27954   0.0442 105.0160 0002021 192.3600 279.2145  1.00273659 51546
ZHONGXING-20            
1 28082U 03052A   17301.93043913 -.00000325  00000-0  00000-0 0  9995
2 28082   3.7639  70.6300 0003977 186.8923 218.1897  1.00272543 51140
YAMAL 202               
1 28089U 03053A   17301.94982764  .00000117  00000-0  00000-0 0  9998
2 28089   0.0724  84.2910 0002861 154.2122 189.9534  1.00276187 51063
EXPRESS-AM22 (SESAT 2)  
1 28134U 03060A   17301.88581372 -.00000139  00000-0  00000+0 0  9994
2 28134   0.7261  90.7349 0000243 175.0905 170.6179  1.00272239 50657
AMC-10 (GE-10)          
1 28154U 04003A   17301.09501154  .00000085  00000-0  00000-0 0  9997
2 28154   0.0243 103.9248 0001465  60.2354 131.6984  1.00273368 50281
ABS-4 (MOBISAT-1)       
1 28184U 04007A   17302.37965963  .00000039  00000-0  00000+0 0  9996
2 28184   0.0125 269.5612 0001992 294.1589  31.8663  1.00273074 49962
EUTELSAT 7A             
1 28187U 04008A   17301.73454068  .00000045  00000-0  00000-0 0  9996
2 28187   0.0701  22.7062 0005607 187.6423  98.3707  1.00271448 49761
DIRECTV 7S              
1 28238U 04016A   17302.08035416 -.00000001  00000-0  00000+0 0  9995
2 28238   0.0379  51.0357 0003071 166.0202  90.4392  1.00272005 49448
AMC-11 (GE-11)          
1 28252U 04017A   17302.47287396  .00000067  00000-0  00000+0 0  9992
2 28252   0.0181  76.4052 0002856 153.3120 207.5047  1.00270184 49091
INTELSAT 10-02          
1 28358U 04022A   17301.78452296 -.00000013  00000-0  00000+0 0  9993
2 28358   0.0178 158.2806 0001194 146.0193  14.4938  1.00272967 49009
APSTAR 5 (TELSTAR 18)   
1 28364U 04024A   17302.47479913 -.00000296  00000-0  00000+0 0  9997
2 28364   0.0169 144.4972 0003223  79.3969 123.0476  1.00272222 48930
ANIK F2                 
1 28378U 04027A   17301.84077139 -.00000052  00000-0  00000+0 0  9999
2 28378   0.0518  74.7260 0000865 106.7178  47.5566  1.00271777 48736
AMC-15                  
1 28446U 04041A   17302.53790030 -.00000091  00000-0  00000+0 0  9993
2 28446   0.0403  54.1418 0002569 179.2682 253.2714  1.00271323 47771
AMC-16                  
1 28472U 04048A   17302.50567671 -.00000208  00000-0  00000+0 0  9999
2 28472   0.0412  57.1717 0002887 162.0856 275.8460  1.00271072 47208
NSS-10 (AMC-12)         
1 28526U 05003A   17302.13296947 -.00000252  00000-0  00000+0 0  9994
2 28526   0.0367  46.5418 0002816 163.3253 198.2458  1.00273585 46704
XTAR-EUR                
1 28542U 05005A   17301.81568807  .00000149  00000-0  00000+0 0  9999
2 28542   0.0308  67.8295 0002935 153.7616 138.4222  1.00272079 46560
